NORAD_CAT_ID,OBJECT_NAME,OBJECT_TYPE,EPOCH,MEAN_MOTION,ECCENTRICITY,INCLINATION,RA_OF_ASC_NODE,ARG_OF_PERICENTER,MEAN_ANOMALY,BSTAR,MEAN_MOTION_DOT,MEAN_MOTION_DDOT,TLE_LINE0,TLE_LINE1,TLE_LINE2,SEMIMAJOR_AXIS,PERIOD,APOGEE,PERIGEE,DECAYED
56492.0,STARLINK-5846,PAYLOAD,2024-02-06 21:28:44,14.98340309,0.0002728,70.0003,225.18,270.566,89.5187,0.00010366,1.144e-05,0.0,0 STARLINK-5846,1 56492U 23064AW  24037.89496218  .00001144  00000-0  10366-3 0  9993,2 56492  70.0003 225.1800 0002728 270.5660  89.5187 14.98340309 42129,6950.161,96.106,573.922,570.13,0.0
56492.0,STARLINK-5846,PAYLOAD,2024-02-07 15:06:13,14.98337555,0.0002625,70.0005,223.3287,269.277,90.8088,1.0913e-05,3.7e-07,0.0,0 STARLINK-5846,1 56492U 23064AW  24038.62932244  .00000037  00000-0  10913-4 0  9998,2 56492  70.0005 223.3287 0002625 269.2770  90.8088 14.98337555 42239,6950.17,96.107,573.859,570.21,0.0
56492.0,STARLINK-5846,PAYLOAD,2024-02-07 19:54:37,14.98337253,0.0002648,70.0006,222.8238,270.5849,89.5007,5.4915e-06,-2.7e-07,0.0,0 STARLINK-5846,1 56492U 23064AW  24038.82960173 -.00000027  00000-0  54915-5 0  9993,2 56492  70.0006 222.8238 0002648 270.5849  89.5007 14.98337253 42621,6950.17,96.107,573.876,570.195,0.0
56492.0,STARLINK-5846,PAYLOAD,2024-02-07 21:30:45,14.98337119,0.0002653,70.0006,222.6555,270.6149,89.4706,3.1765e-06,-5.5e-07,0.0,0 STARLINK-5846,1 56492U 23064AW  24038.89636149 -.00000055  00000-0  31765-5 0  9992,2 56492  70.0006 222.6555 0002653 270.6149  89.4706 14.98337119 42278,6950.171,96.107,573.88,570.192,0.0
56492.0,STARLINK-5846,PAYLOAD,2024-02-08 13:32:06,14.98333197,0.0002557,70.0008,220.9725,269.9702,90.1164,-0.00010224,-1.313e-05,0.0,0 STARLINK-5846,1 56492U 23064AW  24039.56396471 -.00001313  00000-0 -10224-3 0  9992,2 56492  70.0008 220.9725 0002557 269.9702  90.1164 14.98333197 42379,6950.183,96.107,573.825,570.271,0.0
56492.0,STARLINK-5846,PAYLOAD,2024-02-08 19:56:38,14.98331009,0.000259,70.0009,220.2992,269.9882,90.098,-0.00011926,-1.516e-05,0.0,0 STARLINK-5846,1 56492U 23064AW  24039.83100600 -.00001516  00000-0 -11926-3 0  9994,2 56492  70.0009 220.2992 0002590 269.9882  90.0980 14.98331009 42774,6950.19,96.107,573.855,570.255,0.0
56492.0,STARLINK-5846,PAYLOAD,2024-02-08 21:32:46,14.98330788,0.0002591,70.0009,220.1309,270.0446,90.0416,-0.00011931,-1.516e-05,0.0,0 STARLINK-5846,1 56492U 23064AW  24039.89776605 -.00001516  00000-0 -11931-3 0  9990,2 56492  70.0009 220.1309 0002591 270.0446  90.0416 14.98330788 42424,6950.19,96.107,573.856,570.255,0.0
56492.0,STARLINK-5846,PAYLOAD,2024-02-09 13:34:07,14.98333896,0.000266,70.0007,218.4472,269.6714,90.414,-8.6442e-06,-1.96e-06,0.0,0 STARLINK-5846,1 56492U 23064AW  24040.56535948 -.00000196  00000-0 -86442-5 0  9993,2 56492  70.0007 218.4472 0002660 269.6714  90.4140 14.98333896 42524,6950.181,96.107,573.895,570.197,0.0
56492.0,STARLINK-5846,PAYLOAD,2024-02-09 19:58:39,14.98333996,0.0002666,70.0008,217.7741,269.8248,90.2606,-4.6573e-06,-1.49e-06,0.0,0 STARLINK-5846,1 56492U 23064AW  24040.83239871 -.00000149  00000-0 -46573-5 0  9998,2 56492  70.0008 217.7741 0002666 269.8248  90.2606 14.98333996 42926,6950.181,96.107,573.898,570.193,0.0
56492.0,STARLINK-5846,PAYLOAD,2024-02-10 12:00:00,14.98318647,0.0002654,70.0009,216.0909,269.3684,90.7171,-5.7411e-05,-7.78e-06,0.0,0 STARLINK-5846,1 56492U 23064AW  24041.50001121 -.00000778  00000-0 -57411-4 0  9998,2 56492  70.0009 216.0909 0002654 269.3684  90.7171 14.98318647 43021,6950.228,96.108,573.938,570.248,0.0
56492.0,STARLINK-5846,PAYLOAD,2024-02-10 13:36:09,14.98318909,0.0002655,70.0009,215.9224,269.2181,90.8674,-5.4037e-05,-7.37e-06,0.0,0 STARLINK-5846,1 56492U 23064AW  24041.56677138 -.00000737  00000-0 -54037-4 0  9997,2 56492  70.0009 215.9224 0002655 269.2181  90.8674 14.98318909 42671,6950.227,96.108,573.937,570.247,0.0
56492.0,STARLINK-5846,PAYLOAD,2024-02-10 21:36:49,14.98320343,0.000253,70.0013,215.0817,265.3643,94.7227,-1.7231e-05,-2.98e-06,0.0,0 STARLINK-5846,1 56492U 23064AW  24041.90057133 -.00000298  00000-0 -17231-4 0  9999,2 56492  70.0013 215.0817 0002530 265.3643  94.7227 14.98320343 42725,6950.223,96.108,573.846,570.329,0.0
56492.0,STARLINK-5846,PAYLOAD,2024-02-11 12:02:01,14.98332449,0.0002597,70.0013,213.5656,275.9203,84.166,2.6612e-05,2.25e-06,0.0,0 STARLINK-5846,1 56492U 23064AW  24042.50140412  .00000225  00000-0  26612-4 0  9990,2 56492  70.0013 213.5656 0002597 275.9203  84.1660 14.98332449 43175,6950.185,96.107,573.855,570.245,0.0
56492.0,STARLINK-5846,PAYLOAD,2024-02-11 13:38:09,14.98332337,0.0002603,70.0013,213.3975,275.1611,84.9251,2.3756e-05,1.91e-06,0.0,0 STARLINK-5846,1 56492U 23064AW  24042.56816417  .00000191  00000-0  23756-4 0  9999,2 56492  70.0013 213.3975 0002603 275.1611  84.9251 14.98332337 42821,6950.186,96.107,573.86,570.242,0.0
56492.0,STARLINK-5846,PAYLOAD,2024-02-11 21:38:49,14.98333182,0.0002638,70.0014,212.5559,276.3838,83.7021,3.3646e-05,3.09e-06,0.0,0 STARLINK-5846,1 56492U 23064AW  24042.90196316  .00000309  00000-0  33646-4 0  9996,2 56492  70.0014 212.5559 0002638 276.3838  83.7021 14.98333182 42879,6950.183,96.107,573.882,570.215,0.0
56492.0,STARLINK-5846,PAYLOAD,2024-02-12 12:04:01,14.98334501,0.0002945,70.0007,211.0414,275.0625,85.0198,0.00012519,1.401e-05,0.0,0 STARLINK-5846,1 56492U 23064AW  24043.50279823  .00001401  00000-0  12519-3 0  9997,2 56492  70.0007 211.0414 0002945 275.0625  85.0198 14.98334501 43323,6950.179,96.107,574.091,569.997,0.0
56492.0,STARLINK-5846,PAYLOAD,2024-02-12 13:40:09,14.98334736,0.0002946,70.0007,210.8732,275.0987,84.9835,0.00012536,1.403e-05,0.0,0 STARLINK-5846,1 56492U 23064AW  24043.56955790  .00001403  00000-0  12536-3 0  9998,2 56492  70.0007 210.8732 0002946 275.0987  84.9835 14.98334736 42971,6950.178,96.107,574.091,569.996,0.0
56492.0,STARLINK-5846,PAYLOAD,2024-02-12 20:04:41,14.98339016,0.0002859,70.0009,210.2002,274.1675,85.9157,0.00016654,1.895e-05,0.0,0 STARLINK-5846,1 56492U 23064AW  24043.83659289  .00001895  00000-0  16654-3 0  9992,2 56492  70.0009 210.2002 0002859 274.1675  85.9157 14.98339016 43014,6950.165,96.106,574.017,570.043,0.0
56492.0,STARLINK-5846,PAYLOAD,2024-02-13 12:06:02,14.98335757,0.0002642,70.0015,208.5183,269.6795,90.4061,2.5359e-05,2.1e-06,0.0,0 STARLINK-5846,1 56492U 23064AW  24044.50419571  .00000210  00000-0  25359-4 0  9998,2 56492  70.0015 208.5183 0002642 269.6795  90.4061 14.98335757 43476,6950.175,96.107,573.876,570.204,0.0
56492.0,STARLINK-5846,PAYLOAD,2024-02-13 13:42:10,14.98336094,0.0002715,70.0012,208.3501,270.1446,89.9402,-1.1795e-05,-2.34e-06,0.0,0 STARLINK-5846,1 56492U 23064AW  24044.57095640 -.00000234  00000-0 -11795-4 0  9999,2 56492  70.0012 208.3501 0002715 270.1446  89.9402 14.98336094 43125,6950.174,96.107,573.926,570.152,0.0
56492.0,STARLINK-5846,PAYLOAD,2024-02-13 20:06:42,14.98333304,0.0002708,70.0016,207.6765,270.6094,89.4755,-2.0142e-05,-3.33e-06,0.0,0 STARLINK-5846,1 56492U 23064AW  24044.83799739 -.00000333  00000-0 -20142-4 0  9994,2 56492  70.0016 207.6765 0002708 270.6094  89.4755 14.98333304 43160,6950.183,96.107,573.93,570.166,0.0
56492.0,STARLINK-5846,PAYLOAD,2024-02-14 12:08:03,14.98335573,0.0002786,70.0017,205.9934,271.1683,88.9157,-3.8386e-05,-5.51e-06,0.0,0 STARLINK-5846,1 56492U 23064AW  24045.50559366 -.00000551  00000-0 -38386-4 0  9990,2 56492  70.0017 205.9934 0002786 271.1683  88.9157 14.98335573 43627,6950.176,96.107,573.977,570.104,0.0
56492.0,STARLINK-5846,PAYLOAD,2024-02-14 13:44:11,14.9833433,0.0002795,70.0016,205.825,270.5502,89.5337,-5.8085e-05,-7.86e-06,0.0,0 STARLINK-5846,1 56492U 23064AW  24045.57235473 -.00000786  00000-0 -58085-4 0  9995,2 56492  70.0016 205.8250 0002795 270.5502  89.5337 14.98334330 43277,6950.18,96.107,573.987,570.102,0.0
56492.0,STARLINK-5846,PAYLOAD,2024-02-14 16:56:27,14.98338826,0.0002574,70.0015,205.4883,260.5294,99.5574,-4.8639e-05,-6.73e-06,0.0,0 STARLINK-5846,1 56492U 23064AW  24045.70587084 -.00000673  00000-0 -48639-4 0  9997,2 56492  70.0015 205.4883 0002574 260.5294  99.5574 14.98338826 43296,6950.166,96.106,573.82,570.242,0.0
56492.0,STARLINK-5846,PAYLOAD,2024-02-15 12:10:04,14.98324386,0.0002969,70.0012,203.4682,268.9476,91.1343,-3.9206e-05,-5.61e-06,0.0,0 STARLINK-5846,1 56492U 23064AW  24046.50699796 -.00000561  00000-0 -39206-4 0  9996,2 56492  70.0012 203.4682 0002969 268.9476  91.1343 14.98324386 43771,6950.21,96.107,574.139,570.012,0.0
56492.0,STARLINK-5846,PAYLOAD,2024-02-15 13:46:12,14.9832416,0.000298,70.0013,203.3009,268.6626,91.4192,-4.1325e-05,-5.86e-06,0.0,0 STARLINK-5846,1 56492U 23064AW  24046.57375843 -.00000586  00000-0 -41325-4 0  9999,2 56492  70.0013 203.3009 0002980 268.6626  91.4192 14.98324160 43428,6950.211,96.107,574.147,570.005,0.0
56492.0,STARLINK-5846,PAYLOAD,2024-02-15 18:34:36,14.98326114,0.0003114,70.0012,202.7967,272.4184,87.6619,-6.0491e-05,-8.15e-06,0.0,0 STARLINK-5846,1 56492U 23064AW  24046.77403849 -.00000815  00000-0 -60491-4 0  9999,2 56492  70.0012 202.7967 0003114 272.4184  87.6619 14.98326114 43450,6950.205,96.107,574.234,569.906,0.0
56492.0,STARLINK-5846,PAYLOAD,2024-02-16 12:12:05,14.9833085,0.00031,70.0008,200.9427,272.0255,88.0549,3.8612e-05,3.68e-06,0.0,0 STARLINK-5846,1 56492U 23064AW  24047.50839317  .00000368  00000-0  38612-4 0  9995,2 56492  70.0008 200.9427 0003100 272.0255  88.0549 14.98330850 43927,6950.19,96.107,574.21,569.901,0.0
56492.0,STARLINK-5846,PAYLOAD,2024-02-16 13:48:13,14.98331408,0.0003098,70.0009,200.7744,272.1498,87.9306,4.2508e-05,4.14e-06,0.0,0 STARLINK-5846,1 56492U 23064AW  24047.57515271  .00000414  00000-0  42508-4 0  9993,2 56492  70.0009 200.7744 0003098 272.1498  87.9306 14.98331408 43574,6950.189,96.107,574.207,569.9,0.0
56492.0,STARLINK-5846,PAYLOAD,2024-02-16 20:12:44,14.98338504,0.0003094,70.001,200.1011,272.076,88.0045,8.3236e-05,9.01e-06,0.0,0 STARLINK-5846,1 56492U 23064AW  24047.84218625  .00000901  00000-0  83236-4 0  9990,2 56492  70.0010 200.1011 0003094 272.0760  88.0045 14.98338504 43615,6950.167,96.106,574.182,569.881,0.0
